[{"OBJECT_NAME":"FLOCK 4H-29","OBJECT_ID":"2025-276BU","EPOCH":"2026-04-25T22:26:15.164736","MEAN_MOTION":15.1912486,"ECCENTRICITY":0.00033466,"INCLINATION":97.4187,"RA_OF_ASC_NODE":190.2601,"ARG_OF_PERICENTER":177.6858,"MEAN_ANOMALY":182.4393,"EPHEMERIS_TYPE":0,"CLASSIFICATION_TYPE":"U","NORAD_CAT_ID":66732,"ELEMENT_SET_NO":999,"REV_AT_EPOCH":2248,"BSTAR":0.00034698285,"MEAN_MOTION_DOT":7.222e-5,"MEAN_MOTION_DDOT":0},{"OBJECT_NAME":"FLOCK 4H-30","OBJECT_ID":"2025-276BV","EPOCH":"2026-04-25T17:38:07.092384","MEAN_MOTION":15.19199098,"ECCENTRICITY":0.00045662,"INCLINATION":97.425,"RA_OF_ASC_NODE":190.1933,"ARG_OF_PERICENTER":173.0651,"MEAN_ANOMALY":187.0647,"EPHEMERIS_TYPE":0,"CLASSIFICATION_TYPE":"U","NORAD_CAT_ID":66733,"ELEMENT_SET_NO":999,"REV_AT_EPOCH":2245,"BSTAR":0.00030257713,"MEAN_MOTION_DOT":6.303e-5,"MEAN_MOTION_DDOT":0},{"OBJECT_NAME":"FLOCK 4H-31","OBJECT_ID":"2025-276BW","EPOCH":"2026-04-25T17:52:58.552896","MEAN_MOTION":15.19022509,"ECCENTRICITY":0.00038473,"INCLINATION":97.4184,"RA_OF_ASC_NODE":190.0541,"ARG_OF_PERICENTER":177.6054,"MEAN_ANOMALY":182.52,"EPHEMERIS_TYPE":0,"CLASSIFICATION_TYPE":"U","NORAD_CAT_ID":66734,"ELEMENT_SET_NO":999,"REV_AT_EPOCH":2245,"BSTAR":0.00030983778,"MEAN_MOTION_DOT":6.422e-5,"MEAN_MOTION_DDOT":0},{"OBJECT_NAME":"FLOCK 4H-32","OBJECT_ID":"2025-276BX","EPOCH":"2026-04-25T17:44:19.576608","MEAN_MOTION":15.19122951,"ECCENTRICITY":0.00050071,"INCLINATION":97.424,"RA_OF_ASC_NODE":190.172,"ARG_OF_PERICENTER":171.6508,"MEAN_ANOMALY":188.481,"EPHEMERIS_TYPE":0,"CLASSIFICATION_TYPE":"U","NORAD_CAT_ID":66735,"ELEMENT_SET_NO":999,"REV_AT_EPOCH":2245,"BSTAR":0.0003072608,"MEAN_MOTION_DOT":6.387e-5,"MEAN_MOTION_DDOT":0},{"OBJECT_NAME":"FLOCK 4H-33","OBJECT_ID":"2025-276BY","EPOCH":"2026-04-25T18:12:43.108128","MEAN_MOTION":15.20326214,"ECCENTRICITY":0.00038091,"INCLINATION":97.4237,"RA_OF_ASC_NODE":190.4462,"ARG_OF_PERICENTER":112.2404,"MEAN_ANOMALY":247.9236,"EPHEMERIS_TYPE":0,"CLASSIFICATION_TYPE":"U","NORAD_CAT_ID":66736,"ELEMENT_SET_NO":999,"REV_AT_EPOCH":2247,"BSTAR":0.00028932113,"MEAN_MOTION_DOT":6.224e-5,"MEAN_MOTION_DDOT":0},{"OBJECT_NAME":"FLOCK 4H-34","OBJECT_ID":"2025-276BZ","EPOCH":"2026-04-25T20:31:30.877536","MEAN_MOTION":15.19849292,"ECCENTRICITY":0.00039664,"INCLINATION":97.4252,"RA_OF_ASC_NODE":190.4985,"ARG_OF_PERICENTER":117.6799,"MEAN_ANOMALY":242.4839,"EPHEMERIS_TYPE":0,"CLASSIFICATION_TYPE":"U","NORAD_CAT_ID":66737,"ELEMENT_SET_NO":999,"REV_AT_EPOCH":2173,"BSTAR":0.00031821486,"MEAN_MOTION_DOT":6.758e-5,"MEAN_MOTION_DDOT":0},{"OBJECT_NAME":"FLOCK 4H-35","OBJECT_ID":"2025-276CA","EPOCH":"2026-04-25T18:34:40.437696","MEAN_MOTION":15.20082766,"ECCENTRICITY":0.0003523,"INCLINATION":97.4213,"RA_OF_ASC_NODE":190.3787,"ARG_OF_PERICENTER":108.0217,"MEAN_ANOMALY":252.1402,"EPHEMERIS_TYPE":0,"CLASSIFICATION_TYPE":"U","NORAD_CAT_ID":66738,"ELEMENT_SET_NO":999,"REV_AT_EPOCH":2176,"BSTAR":0.00029655255,"MEAN_MOTION_DOT":6.336e-5,"MEAN_MOTION_DDOT":0},{"OBJECT_NAME":"FLOCK 4H-36","OBJECT_ID":"2025-276CB","EPOCH":"2026-04-25T22:21:19.278432","MEAN_MOTION":15.19813174,"ECCENTRICITY":0.00040032,"INCLINATION":97.426,"RA_OF_ASC_NODE":190.5671,"ARG_OF_PERICENTER":125.954,"MEAN_ANOMALY":234.2067,"EPHEMERIS_TYPE":0,"CLASSIFICATION_TYPE":"U","NORAD_CAT_ID":66739,"ELEMENT_SET_NO":999,"REV_AT_EPOCH":2249,"BSTAR":0.00031685752,"MEAN_MOTION_DOT":6.722e-5,"MEAN_MOTION_DDOT":0}]
